ORBCOMM-X               
1 21576U 91050C   24355.77423331  .00000723  00000+0  22898-3 0  9998
2 21576  98.3686  59.8309 0003886  24.2503 335.8870 14.42984038756384
ORBCOMM FM01            
1 23545U 95017A   24355.90055139  .00009980  00000+0  11461-2 0  9992
2 23545  69.9641 157.5039 0006719 252.0055 108.0365 14.86049804585980
ORBCOMM FM02            
1 23546U 95017B   24355.90177906  .00013576  00000+0  15545-2 0  9993
2 23546  69.9657 177.1986 0008428 243.8707 116.1579 14.86052011585923
ORBCOMM FM08            
1 25112U 97084A   24355.84633052  .00002999  00000+0  89958-3 0  9999
2 25112  45.0123 143.2850 0005431  81.1419 279.0047 14.44589416415575
ORBCOMM FM10            
1 25113U 97084B   24355.87192545  .00003334  00000+0  99870-3 0  9998
2 25113  45.0136 145.2494 0002932  40.9754 319.1317 14.44431305415731
ORBCOMM FM11            
1 25114U 97084C   24355.84700451  .00002848  00000+0  86301-3 0  9991
2 25114  45.0122 145.6944 0003840  41.6295 318.4847 14.44207326415686
ORBCOMM FM12            
1 25115U 97084D   24355.81127180  .00002592  00000+0  78926-3 0  9991
2 25115  45.0130 145.6249 0002779  41.7426 318.3637 14.44210049415470
ORBCOMM FM09            
1 25116U 97084E   24355.83017831  .00002781  00000+0  84530-3 0  9993
2 25116  45.0133 146.3116 0004000  18.5795 341.5201 14.44128853415684
